{"type": "FeatureCollection", "features": [ {"type": "Feature", "properties": {"norad_id": 30272, "name": "FENGYUN 1C DEB", "group": "fengyun-1c-debris", "lat": -47.930556543297826, "lon": 75.9801950343254, "alt_km": 867.8702306925989, "timestamp": "2025-12-24T07:45:06.474696+00:00", "meta": {"OBJECT_NAME": "FENGYUN 1C DEB", "OBJECT_ID": "1999-025YH", "EPOCH": "2025-12-22T15:14:43.570464", "MEAN_MOTION": 14.1475229, "ECCENTRICITY": 0.00503459, "INCLINATION": 98.9004, "RA_OF_ASC_NODE": 64.2999, "ARG_OF_PERICENTER": 76.0082, "MEAN_ANOMALY": 284.6682, "EPHEMERIS_TYPE": 0, "CLASSIFICATION_TYPE": "U", "NORAD_CAT_ID": 30272, "ELEMENT_SET_NO": 999, "REV_AT_EPOCH": 96996, "BSTAR": 0.00096665706, "MEAN_MOTION_DOT": 1.841e-05, "MEAN_MOTION_DDOT": 0}, "tle": {"line1": "1 30272U 99025YH  25356.63522651  .00001841  00000+0  96666-3 0  9999", "line2": "2 30272  98.9004  64.2999 0050345  76.0082 284.6682 14.14752290969965"}}, "geometry": {"type": "Point", "coordinates": [75.9801950343254, -47.930556543297826]}}, {"type": "Feature", "properties": {"norad_id": 30273, "name": "FENGYUN 1C DEB", "group": "fengyun-1c-debris", "lat": 33.65393550353129, "lon": -161.5080278414924, "alt_km": 867.844374932427, "timestamp": "2025-12-24T07:45:06.474709+00:00", "meta": {"OBJECT_NAME": "FENGYUN 1C DEB", "OBJECT_ID": "1999-025YJ", "EPOCH": "2025-12-23T19:55:09.384672", "MEAN_MOTION": 14.02673291, "ECCENTRICITY": 0.00606234, "INCLINATION": 98.8394, "RA_OF_ASC_NODE": 12.0671, "ARG_OF_PERICENTER": 218.2474, "MEAN_ANOMALY": 320.0027, "EPHEMERIS_TYPE": 0, "CLASSIFICATION_TYPE": "U", "NORAD_CAT_ID": 30273, "ELEMENT_SET_NO": 999, "REV_AT_EPOCH": 96684, "BSTAR": 0.00027657343, "MEAN_MOTION_DOT": 3.91e-06, "MEAN_MOTION_DDOT": 0}, "tle": {"line1": "1 30273U 99025YJ  25357.82996973  .00000391  00000+0  27657-3 0  9997", "line2": "2 30273  98.8394  12.0671 0060623 218.2474 320.0027 14.02673291966842"}}, "geometry": {"type": "Point", "coordinates": [-161.5080278414924, 33.65393550353129]}}, {"type": "Feature", "properties": {"norad_id": 30274, "name": "FENGYUN 1C DEB", "group": "fengyun-1c-debris", "lat": -33.835306759460636, "lon": -58.080870032003475, "alt_km": 722.7400711379105, "timestamp": "2025-12-24T07:45:06.474719+00:00", "meta": {"OBJECT_NAME": "FENGYUN 1C DEB", "OBJECT_ID": "1999-025YK", "EPOCH": "2025-12-23T21:25:35.252832", "MEAN_MOTION": 14.51834521, "ECCENTRICITY": 0.00047258, "INCLINATION": 99.3018, "RA_OF_ASC_NODE": 127.7508, "ARG_OF_PERICENTER": 190.4841, "MEAN_ANOMALY": 296.4103, "EPHEMERIS_TYPE": 0, "CLASSIFICATION_TYPE": "U", "NORAD_CAT_ID": 30274, "ELEMENT_SET_NO": 999, "REV_AT_EPOCH": 98372, "BSTAR": 0.0025111128, "MEAN_MOTION_DOT": 0.00010071, "MEAN_MOTION_DDOT": 0}, "tle": {"line1": "1 30274U 99025YK  25357.89276913  .00010071  00000+0  25111-2 0  9998", "line2": "2 30274  99.3018 127.7508 0004725 190.4841 296.4103 14.51834521983721"}}, "geometry": {"type": "Point", "coordinates": [-58.080870032003475, -33.835306759460636]}}, {"type": "Feature", "properties": {"norad_id": 30275, "name": "FENGYUN 1C DEB", "group": "fengyun-1c-debris", "lat": -77.23749258079874, "lon": -139.3198835226309, "alt_km": 756.2928753251854, "timestamp": "2025-12-24T07:45:06.474729+00:00", "meta": {"OBJECT_NAME": "FENGYUN 1C DEB", "OBJECT_ID": "1999-025YL", "EPOCH": "2025-12-23T04:14:50.663328", "MEAN_MOTION": 14.45440015, "ECCENTRICITY": 0.00397544, "INCLINATION": 98.6277, "RA_OF_ASC_NODE": 81.6066, "ARG_OF_PERICENTER": 156.3762, "MEAN_ANOMALY": 263.7498, "EPHEMERIS_TYPE": 0, "CLASSIFICATION_TYPE": "U", "NORAD_CAT_ID": 30275, "ELEMENT_SET_NO": 999, "REV_AT_EPOCH": 98235, "BSTAR": 0.0023433388, "MEAN_MOTION_DOT": 8.294e-05, "MEAN_MOTION_DDOT": 0}, "tle": {"line1": "1 30275U 99025YL  25357.17697527  .00008294  00000+0  23433-2 0  9997", "line2": "2 30275  98.6277  81.6066 0039754 156.3762 263.7498 14.45440015982357"}}, "geometry": {"type": "Point", "coordinates": [-139.3198835226309, -77.23749258079874]}}, {"type": "Feature", "properties": {"norad_id": 30276, "name": "FENGYUN 1C DEB", "group": "fengyun-1c-debris", "lat": 19.897411588279617, "lon": -106.72333426217303, "alt_km": 805.0576865531539, "timestamp": "2025-12-24T07:45:06.474740+00:00", "meta": {"OBJECT_NAME": "FENGYUN 1C DEB", "OBJECT_ID": "1999-025YM", "EPOCH": "2025-12-23T10:48:56.452032", "MEAN_MOTION": 14.27085193, "ECCENTRICITY": 0.00239466, "INCLINATION": 98.859, "RA_OF_ASC_NODE": 69.1574, "ARG_OF_PERICENTER": 60.172, "MEAN_ANOMALY": 300.1837, "EPHEMERIS_TYPE": 0, "CLASSIFICATION_TYPE": "U", "NORAD_CAT_ID": 30276, "ELEMENT_SET_NO": 999, "REV_AT_EPOCH": 97683, "BSTAR": 0.0012149886, "MEAN_MOTION_DOT": 2.925e-05, "MEAN_MOTION_DDOT": 0}, "tle": {"line1": "1 30276U 99025YM  25357.45065338  .00002925  00000+0  12150-2 0  9997", "line2": "2 30276  98.8590  69.1574 0023946  60.1720 300.1837 14.27085193976836"}}, "geometry": {"type": "Point", "coordinates": [-106.72333426217303, 19.897411588279617]}}, {"type": "Feature", "properties": {"norad_id": 30277, "name": "FENGYUN 1C DEB", "group": "fengyun-1c-debris", "lat": 26.945183583796865, "lon": 64.42411410194053, "alt_km": 886.9652179219265, "timestamp": "2025-12-24T07:45:06.474750+00:00", "meta": {"OBJECT_NAME": "FENGYUN 1C DEB", "OBJECT_ID": "1999-025YN", "EPOCH": "2025-12-23T11:49:40.421280", "MEAN_MOTION": 14.13629252, "ECCENTRICITY": 0.01240282, "INCLINATION": 98.9718, "RA_OF_ASC_NODE": 68.1974, "ARG_OF_PERICENTER": 147.6891, "MEAN_ANOMALY": 338.5686, "EPHEMERIS_TYPE": 0, "CLASSIFICATION_TYPE": "U", "NORAD_CAT_ID": 30277, "ELEMENT_SET_NO": 999, "REV_AT_EPOCH": 96941, "BSTAR": 0.0011468047, "MEAN_MOTION_DOT": 2.285e-05, "MEAN_MOTION_DDOT": 0}, "tle": {"line1": "1 30277U 99025YN  25357.49282895  .00002285  00000+0  11468-2 0  9991", "line2": "2 30277  98.9718  68.1974 0124028 147.6891 338.5686 14.13629252969414"}}, "geometry": {"type": "Point", "coordinates": [64.42411410194053, 26.945183583796865]}}, {"type": "Feature", "properties": {"norad_id": 30279, "name": "FENGYUN 1C DEB", "group": "fengyun-1c-debris", "lat": -69.62023058342464, "lon": 87.78404269834908, "alt_km": 955.0143433844714, "timestamp": "2025-12-24T07:45:06.474760+00:00", "meta": {"OBJECT_NAME": "FENGYUN 1C DEB", "OBJECT_ID": "1999-025YQ", "EPOCH": "2025-12-23T10:52:39.736416", "MEAN_MOTION": 14.23143923, "ECCENTRICITY": 0.02197247, "INCLINATION": 99.1515, "RA_OF_ASC_NODE": 292.5962, "ARG_OF_PERICENTER": 42.1576, "MEAN_ANOMALY": 77.3243, "EPHEMERIS_TYPE": 0, "CLASSIFICATION_TYPE": "U", "NORAD_CAT_ID": 30279, "ELEMENT_SET_NO": 999, "REV_AT_EPOCH": 97763, "BSTAR": 0.0009055613, "MEAN_MOTION_DOT": 2.571e-05, "MEAN_MOTION_DDOT": 0}, "tle": {"line1": "1 30279U 99025YQ  25357.45323769  .00002571  00000+0  90556-3 0  9999", "line2": "2 30279  99.1515 292.5962 0219724  42.1576  77.3243 14.23143923977638"}}, "geometry": {"type": "Point", "coordinates": [87.78404269834908, -69.62023058342464]}}, {"type": "Feature", "properties": {"norad_id": 30280, "name": "FENGYUN 1C DEB", "group": "fengyun-1c-debris", "lat": 68.12208446714041, "lon": -35.41273462219613, "alt_km": 932.1138883143358, "timestamp": "2025-12-24T07:45:06.474770+00:00", "meta": {"OBJECT_NAME": "FENGYUN 1C DEB", "OBJECT_ID": "1999-025YR", "EPOCH": "2025-12-23T23:05:51.931968", "MEAN_MOTION": 13.98332891, "ECCENTRICITY": 0.00799263, "INCLINATION": 98.7754, "RA_OF_ASC_NODE": 346.8657, "ARG_OF_PERICENTER": 298.2178, "MEAN_ANOMALY": 116.8403, "EPHEMERIS_TYPE": 0, "CLASSIFICATION_TYPE": "U", "NORAD_CAT_ID": 30280, "ELEMENT_SET_NO": 999, "REV_AT_EPOCH": 96563, "BSTAR": 0.00010353213, "MEAN_MOTION_DOT": 1.09e-06, "MEAN_MOTION_DDOT": 0}, "tle": {"line1": "1 30280U 99025YR  25357.96240662  .00000109  00000+0  10353-3 0  9999", "line2": "2 30280  98.7754 346.8657 0079926 298.2178 116.8403 13.98332891965633"}}, "geometry": {"type": "Point", "coordinates": [-35.41273462219613, 68.12208446714041]}}, {"type": "Feature", "properties": {"norad_id": 30281, "name": "FENGYUN 1C DEB", "group": "fengyun-1c-debris", "lat": 73.92173624603498, "lon": -44.49798530797276, "alt_km": 862.892170778221, "timestamp": "2025-12-24T07:45:06.474780+00:00", "meta": {"OBJECT_NAME": "FENGYUN 1C DEB", "OBJECT_ID": "1999-025YS", "EPOCH": "2025-12-23T23:08:19.004640", "MEAN_MOTION": 14.10483782, "ECCENTRICITY": 0.0028297, "INCLINATION": 98.7577, "RA_OF_ASC_NODE": 347.4845, "ARG_OF_PERICENTER": 204.447, "MEAN_ANOMALY": 211.0059, "EPHEMERIS_TYPE": 0, "CLASSIFICATION_TYPE": "U", "NORAD_CAT_ID": 30281, "ELEMENT_SET_NO": 999, "REV_AT_EPOCH": 97379, "BSTAR": 0.00018452405, "MEAN_MOTION_DOT": 2.87e-06, "MEAN_MOTION_DDOT": 0}, "tle": {"line1": "1 30281U 99025YS  25357.96410885  .00000287  00000+0  18452-3 0  9991", "line2": "2 30281  98.7577 347.4845 0028297 204.4470 211.0059 14.10483782973794"}}, "geometry": {"type": "Point", "coordinates": [-44.49798530797276, 73.92173624603498]}}, {"type": "Feature", "properties": {"norad_id": 30282, "name": "FENGYUN 1C DEB", "group": "fengyun-1c-debris", "lat": -66.13239698740182, "lon": 20.763817710170876, "alt_km": 733.2969587676571, "timestamp": "2025-12-24T07:45:06.474795+00:00", "meta": {"OBJECT_NAME": "FENGYUN 1C DEB", "OBJECT_ID": "1999-025YT", "EPOCH": "2025-12-23T22:09:16.450848", "MEAN_MOTION": 14.12991541, "ECCENTRICITY": 0.02096888, "INCLINATION": 98.5017, "RA_OF_ASC_NODE": 0.6254, "ARG_OF_PERICENTER": 330.0027, "MEAN_ANOMALY": 90.8646, "EPHEMERIS_TYPE": 0, "CLASSIFICATION_TYPE": "U", "NORAD_CAT_ID": 30282, "ELEMENT_SET_NO": 999, "REV_AT_EPOCH": 97509, "BSTAR": 0.00032760471, "MEAN_MOTION_DOT": 7.09e-06, "MEAN_MOTION_DDOT": 0}, "tle": {"line1": "1 30282U 99025YT  25357.92310707  .00000709  00000+0  32760-3 0  9997", "line2": "2 30282  98.5017   0.6254 0209688 330.0027  90.8646 14.12991541975092"}}, "geometry": {"type": "Point", "coordinates": [20.763817710170876, -66.13239698740182]}}]}